{"type": "FeatureCollection", "features": [ {"type": "Feature", "properties": {"norad_id": 32260, "name": "GPS BIIRM-4 (PRN 15)", "group": "gnss", "lat": 15.40538334778444, "lon": 99.44057265879525, "alt_km": 19997.076022560716, "timestamp": "2025-12-09T18:55:17.474394+00:00", "meta": {"OBJECT_NAME": "GPS BIIRM-4 (PRN 15)", "OBJECT_ID": "2007-047A", "EPOCH": "2025-12-09T06:19:25.464288", "MEAN_MOTION": 2.00564591, "ECCENTRICITY": 0.016427, "INCLINATION": 53.953, "RA_OF_ASC_NODE": 87.9021, "ARG_OF_PERICENTER": 85.2089, "MEAN_ANOMALY": 276.6577, "EPHEMERIS_TYPE": 0, "CLASSIFICATION_TYPE": "U", "NORAD_CAT_ID": 32260, "ELEMENT_SET_NO": 999, "REV_AT_EPOCH": 13300, "BSTAR": 0, "MEAN_MOTION_DOT": -1.5e-07, "MEAN_MOTION_DDOT": 0}, "tle": {"line1": "1 32260U 07047A   25343.26348917 -.00000015  00000+0  00000+0 0  9993", "line2": "2 32260  53.9530  87.9021 0164270  85.2089 276.6577  2.00564591133008"}}, "geometry": {"type": "Point", "coordinates": [99.44057265879525, 15.40538334778444]}}, {"type": "Feature", "properties": {"norad_id": 32275, "name": "COSMOS 2433 (720)", "group": "gnss", "lat": -11.294750259471165, "lon": -42.88547795987634, "alt_km": 19133.082956965063, "timestamp": "2025-12-09T18:55:17.474406+00:00", "meta": {"OBJECT_NAME": "COSMOS 2433 (720)", "OBJECT_ID": "2007-052A", "EPOCH": "2025-12-09T08:02:51.661824", "MEAN_MOTION": 2.13103784, "ECCENTRICITY": 0.00055818, "INCLINATION": 65.6852, "RA_OF_ASC_NODE": 322.3203, "ARG_OF_PERICENTER": 252.1603, "MEAN_ANOMALY": 107.7768, "EPHEMERIS_TYPE": 0, "CLASSIFICATION_TYPE": "U", "NORAD_CAT_ID": 32275, "ELEMENT_SET_NO": 999, "REV_AT_EPOCH": 14101, "BSTAR": 0, "MEAN_MOTION_DOT": -4.9e-07, "MEAN_MOTION_DDOT": 0}, "tle": {"line1": "1 32275U 07052A   25343.33532016 -.00000049  00000+0  00000+0 0  9995", "line2": "2 32275  65.6852 322.3203 0005581 252.1603 107.7768  2.13103784141018"}}, "geometry": {"type": "Point", "coordinates": [-42.88547795987634, -11.294750259471165]}}, {"type": "Feature", "properties": {"norad_id": 32276, "name": "COSMOS 2432 (719)", "group": "gnss", "lat": -57.685639855436115, "lon": -83.15381290471392, "alt_km": 19108.982299462747, "timestamp": "2025-12-09T18:55:17.474418+00:00", "meta": {"OBJECT_NAME": "COSMOS 2432 (719)", "OBJECT_ID": "2007-052B", "EPOCH": "2025-12-09T13:28:48.375264", "MEAN_MOTION": 2.13102958, "ECCENTRICITY": 0.00112506, "INCLINATION": 65.7007, "RA_OF_ASC_NODE": 322.4368, "ARG_OF_PERICENTER": 311.4097, "MEAN_ANOMALY": 166.6519, "EPHEMERIS_TYPE": 0, "CLASSIFICATION_TYPE": "U", "NORAD_CAT_ID": 32276, "ELEMENT_SET_NO": 999, "REV_AT_EPOCH": 14104, "BSTAR": 0, "MEAN_MOTION_DOT": -4.9e-07, "MEAN_MOTION_DDOT": 0}, "tle": {"line1": "1 32276U 07052B   25343.56167101 -.00000049  00000+0  00000+0 0  9990", "line2": "2 32276  65.7007 322.4368 0011250 311.4097 166.6519  2.13102958141044"}}, "geometry": {"type": "Point", "coordinates": [-83.15381290471392, -57.685639855436115]}}, {"type": "Feature", "properties": {"norad_id": 32384, "name": "GPS BIIRM-5 (PRN 29)", "group": "gnss", "lat": 24.293204900607563, "lon": 83.46719286694001, "alt_km": 20094.488345432404, "timestamp": "2025-12-09T18:55:17.474430+00:00", "meta": {"OBJECT_NAME": "GPS BIIRM-5 (PRN 29)", "OBJECT_ID": "2007-062A", "EPOCH": "2025-12-09T04:27:19.804896", "MEAN_MOTION": 2.00577042, "ECCENTRICITY": 0.00322219, "INCLINATION": 55.1854, "RA_OF_ASC_NODE": 281.7885, "ARG_OF_PERICENTER": 162.5723, "MEAN_ANOMALY": 272.1574, "EPHEMERIS_TYPE": 0, "CLASSIFICATION_TYPE": "U", "NORAD_CAT_ID": 32384, "ELEMENT_SET_NO": 999, "REV_AT_EPOCH": 13170, "BSTAR": 0, "MEAN_MOTION_DOT": -5.2e-07, "MEAN_MOTION_DDOT": 0}, "tle": {"line1": "1 32384U 07062A   25343.18564589 -.00000052  00000+0  00000+0 0  9994", "line2": "2 32384  55.1854 281.7885 0032221 162.5723 272.1574  2.00577042131702"}}, "geometry": {"type": "Point", "coordinates": [83.46719286694001, 24.293204900607563]}}, {"type": "Feature", "properties": {"norad_id": 32393, "name": "COSMOS 2434 (721)", "group": "gnss", "lat": -49.94597853509682, "lon": 53.22976580549787, "alt_km": 19146.388792003523, "timestamp": "2025-12-09T18:55:17.474442+00:00", "meta": {"OBJECT_NAME": "COSMOS 2434 (721)", "OBJECT_ID": "2007-065A", "EPOCH": "2025-12-09T05:35:23.361792", "MEAN_MOTION": 2.13101149, "ECCENTRICITY": 0.00042885, "INCLINATION": 64.3147, "RA_OF_ASC_NODE": 198.3216, "ARG_OF_PERICENTER": 70.9906, "MEAN_ANOMALY": 101.028, "EPHEMERIS_TYPE": 0, "CLASSIFICATION_TYPE": "U", "NORAD_CAT_ID": 32393, "ELEMENT_SET_NO": 999, "REV_AT_EPOCH": 13972, "BSTAR": 0, "MEAN_MOTION_DOT": 4.5e-07, "MEAN_MOTION_DDOT": 0}, "tle": {"line1": "1 32393U 07065A   25343.23290928  .00000045  00000+0  00000+0 0  9997", "line2": "2 32393  64.3147 198.3216 0004288  70.9906 101.0280  2.13101149139726"}}, "geometry": {"type": "Point", "coordinates": [53.22976580549787, -49.94597853509682]}}, {"type": "Feature", "properties": {"norad_id": 32395, "name": "COSMOS 2436 (723)", "group": "gnss", "lat": 10.075935713989727, "lon": -156.7189427182346, "alt_km": 19083.98575783679, "timestamp": "2025-12-09T18:55:17.474454+00:00", "meta": {"OBJECT_NAME": "COSMOS 2436 (723)", "OBJECT_ID": "2007-065C", "EPOCH": "2025-12-08T02:01:11.627904", "MEAN_MOTION": 2.13100022, "ECCENTRICITY": 0.00177472, "INCLINATION": 64.3236, "RA_OF_ASC_NODE": 198.4308, "ARG_OF_PERICENTER": 9.2257, "MEAN_ANOMALY": 134.6131, "EPHEMERIS_TYPE": 0, "CLASSIFICATION_TYPE": "U", "NORAD_CAT_ID": 32395, "ELEMENT_SET_NO": 999, "REV_AT_EPOCH": 13965, "BSTAR": 0, "MEAN_MOTION_DOT": 5.1e-07, "MEAN_MOTION_DDOT": 0}, "tle": {"line1": "1 32395U 07065C   25342.08416236  .00000051  00000+0  00000+0 0  9990", "line2": "2 32395  64.3236 198.4308 0017747   9.2257 134.6131  2.13100022139656"}}, "geometry": {"type": "Point", "coordinates": [-156.7189427182346, 10.075935713989727]}}, {"type": "Feature", "properties": {"norad_id": 32711, "name": "GPS BIIRM-6 (PRN 07)", "group": "gnss", "lat": 51.48659544853902, "lon": -138.63104873089117, "alt_km": 20706.12084896084, "timestamp": "2025-12-09T18:55:17.474466+00:00", "meta": {"OBJECT_NAME": "GPS BIIRM-6 (PRN 07)", "OBJECT_ID": "2008-012A", "EPOCH": "2025-12-09T04:24:39.828384", "MEAN_MOTION": 2.00565429, "ECCENTRICITY": 0.0202295, "INCLINATION": 54.4767, "RA_OF_ASC_NODE": 157.5149, "ARG_OF_PERICENTER": 244.9075, "MEAN_ANOMALY": 112.9865, "EPHEMERIS_TYPE": 0, "CLASSIFICATION_TYPE": "U", "NORAD_CAT_ID": 32711, "ELEMENT_SET_NO": 999, "REV_AT_EPOCH": 12994, "BSTAR": 0, "MEAN_MOTION_DOT": 6.4e-07, "MEAN_MOTION_DDOT": 0}, "tle": {"line1": "1 32711U 08012A   25343.18379431  .00000064  00000+0  00000+0 0  9996", "line2": "2 32711  54.4767 157.5149 0202295 244.9075 112.9865  2.00565429129942"}}, "geometry": {"type": "Point", "coordinates": [-138.63104873089117, 51.48659544853902]}}, {"type": "Feature", "properties": {"norad_id": 35752, "name": "GPS BIIRM-8 (PRN 05)", "group": "gnss", "lat": 55.82149251146402, "lon": 133.06743411694785, "alt_km": 20040.927355921263, "timestamp": "2025-12-09T18:55:17.474477+00:00", "meta": {"OBJECT_NAME": "GPS BIIRM-8 (PRN 05)", "OBJECT_ID": "2009-043A", "EPOCH": "2025-12-09T03:40:35.787936", "MEAN_MOTION": 2.00565819, "ECCENTRICITY": 0.0051902, "INCLINATION": 56.0885, "RA_OF_ASC_NODE": 34.9246, "ARG_OF_PERICENTER": 81.9687, "MEAN_ANOMALY": 273.8421, "EPHEMERIS_TYPE": 0, "CLASSIFICATION_TYPE": "U", "NORAD_CAT_ID": 35752, "ELEMENT_SET_NO": 999, "REV_AT_EPOCH": 11954, "BSTAR": 0, "MEAN_MOTION_DOT": -8.5e-07, "MEAN_MOTION_DDOT": 0}, "tle": {"line1": "1 35752U 09043A   25343.15319199 -.00000085  00000+0  00000+0 0  9995", "line2": "2 35752  56.0885  34.9246 0051902  81.9687 273.8421  2.00565819119543"}}, "geometry": {"type": "Point", "coordinates": [133.06743411694785, 55.82149251146402]}}, {"type": "Feature", "properties": {"norad_id": 36111, "name": "COSMOS 2456 (730)", "group": "gnss", "lat": 31.5112581041634, "lon": 94.12144639119504, "alt_km": 19127.03379686473, "timestamp": "2025-12-09T18:55:17.474488+00:00", "meta": {"OBJECT_NAME": "COSMOS 2456 (730)", "OBJECT_ID": "2009-070A", "EPOCH": "2025-12-09T05:47:54.858624", "MEAN_MOTION": 2.13103359, "ECCENTRICITY": 0.00028383, "INCLINATION": 64.8981, "RA_OF_ASC_NODE": 77.4578, "ARG_OF_PERICENTER": 298.5783, "MEAN_ANOMALY": 37.1692, "EPHEMERIS_TYPE": 0, "CLASSIFICATION_TYPE": "U", "NORAD_CAT_ID": 36111, "ELEMENT_SET_NO": 999, "REV_AT_EPOCH": 12437, "BSTAR": 0, "MEAN_MOTION_DOT": -1.7e-07, "MEAN_MOTION_DDOT": 0}, "tle": {"line1": "1 36111U 09070A   25343.24160716 -.00000017  00000+0  00000+0 0  9999", "line2": "2 36111  64.8981  77.4578 0002838 298.5783  37.1692  2.13103359124373"}}, "geometry": {"type": "Point", "coordinates": [94.12144639119504, 31.5112581041634]}}, {"type": "Feature", "properties": {"norad_id": 36112, "name": "COSMOS 2457 (733)", "group": "gnss", "lat": 14.0525673441859, "lon": -109.43897214421577, "alt_km": 19116.399725756703, "timestamp": "2025-12-09T18:55:17.474500+00:00", "meta": {"OBJECT_NAME": "COSMOS 2457 (733)", "OBJECT_ID": "2009-070B", "EPOCH": "2025-12-08T14:21:11.818944", "MEAN_MOTION": 2.13100771, "ECCENTRICITY": 0.0004866, "INCLINATION": 64.883, "RA_OF_ASC_NODE": 77.3275, "ARG_OF_PERICENTER": 155.8932, "MEAN_ANOMALY": 175.3227, "EPHEMERIS_TYPE": 0, "CLASSIFICATION_TYPE": "U", "NORAD_CAT_ID": 36112, "ELEMENT_SET_NO": 999, "REV_AT_EPOCH": 12436, "BSTAR": 0, "MEAN_MOTION_DOT": -1.5e-07, "MEAN_MOTION_DDOT": 0}, "tle": {"line1": "1 36112U 09070B   25342.59805346 -.00000015  00000+0  00000+0 0  9990", "line2": "2 36112  64.8830  77.3275 0004866 155.8932 175.3227  2.13100771124367"}}, "geometry": {"type": "Point", "coordinates": [-109.43897214421577, 14.0525673441859]}}]}